[{"COMMENT":"GENERATED VIA SPACETRACK.ORG API","ORIGINATOR":"18 SPCS","NORAD_CAT_ID":"43476","OBJECT_NAME":"GRACE-FO 1","OBJECT_TYPE":"PAYLOAD","CLASSIFICATION_TYPE":"U","INTLDES":"18047A","EPOCH":"2023-10-16 14:49:16","EPOCH_MICROSECONDS":"574880","MEAN_MOTION":"15.27081185","ECCENTRICITY":"0.0010881","INCLINATION":"88.9855","RA_OF_ASC_NODE":"332.6776","ARG_OF_PERICENTER":"295.6091","MEAN_ANOMALY":"64.4033","EPHEMERIS_TYPE":"0","ELEMENT_SET_NO":"999","REV_AT_EPOCH":"30052","BSTAR":"0.00016108","MEAN_MOTION_DOT":"0.00004311","MEAN_MOTION_DDOT":"0","FILE":"4036830","TLE_LINE0":"0 GRACE-FO 1","TLE_LINE1":"1 43476U 18047A   23289.61755295  .00004311  00000-0  16108-3 0  9996","TLE_LINE2":"2 43476  88.9855 332.6776 0010881 295.6091  64.4033 15.27081185300521","OBJECT_ID":"2018-047A","OBJECT_NUMBER":"43476","SEMIMAJOR_AXIS":"6862.680","PERIOD":"94.298","APOGEE":"492.012","PERIGEE":"477.078","DECAYED":"0"},{"COMMENT":"GENERATED VIA SPACETRACK.ORG API","ORIGINATOR":"18 SPCS","NORAD_CAT_ID":"43476","OBJECT_NAME":"GRACE-FO 1","OBJECT_TYPE":"PAYLOAD","CLASSIFICATION_TYPE":"U","INTLDES":"18047A","EPOCH":"2023-10-16 21:06:43","EPOCH_MICROSECONDS":"809408","MEAN_MOTION":"15.27083611","ECCENTRICITY":"0.0010864","INCLINATION":"88.9854","RA_OF_ASC_NODE":"332.6418","ARG_OF_PERICENTER":"294.3906","MEAN_ANOMALY":"65.6209","EPHEMERIS_TYPE":"0","ELEMENT_SET_NO":"999","REV_AT_EPOCH":"30056","BSTAR":"0.00016821","MEAN_MOTION_DOT":"0.00004501","MEAN_MOTION_DDOT":"0","FILE":"4037312","TLE_LINE0":"0 GRACE-FO 1","TLE_LINE1":"1 43476U 18047A   23289.87967372  .00004501  00000-0  16821-3 0  9998","TLE_LINE2":"2 43476  88.9854 332.6418 0010864 294.3906  65.6209 15.27083611300563","OBJECT_ID":"2018-047A","OBJECT_NUMBER":"43476","SEMIMAJOR_AXIS":"6862.673","PERIOD":"94.297","APOGEE":"491.993","PERIGEE":"477.082","DECAYED":"0"},{"COMMENT":"GENERATED VIA SPACETRACK.ORG API","ORIGINATOR":"18 SPCS","NORAD_CAT_ID":"43476","OBJECT_NAME":"GRACE-FO 1","OBJECT_TYPE":"PAYLOAD","CLASSIFICATION_TYPE":"U","INTLDES":"18047A","EPOCH":"2023-10-17 12:50:21","EPOCH_MICROSECONDS":"788160","MEAN_MOTION":"15.27088469","ECCENTRICITY":"0.0010817","INCLINATION":"88.9852","RA_OF_ASC_NODE":"332.5524","ARG_OF_PERICENTER":"291.2716","MEAN_ANOMALY":"68.7378","EPHEMERIS_TYPE":"0","ELEMENT_SET_NO":"999","REV_AT_EPOCH":"30066","BSTAR":"0.00016408","MEAN_MOTION_DOT":"0.00004391","MEAN_MOTION_DDOT":"0","FILE":"4039107","TLE_LINE0":"0 GRACE-FO 1","TLE_LINE1":"1 43476U 18047A   23290.53497440  .00004391  00000-0  16408-3 0  9995","TLE_LINE2":"2 43476  88.9852 332.5524 0010817 291.2716  68.7378 15.27088469300669","OBJECT_ID":"2018-047A","OBJECT_NUMBER":"43476","SEMIMAJOR_AXIS":"6862.658","PERIOD":"94.297","APOGEE":"491.947","PERIGEE":"477.100","DECAYED":"0"},{"COMMENT":"GENERATED VIA SPACETRACK.ORG API","ORIGINATOR":"18 SPCS","NORAD_CAT_ID":"43476","OBJECT_NAME":"GRACE-FO 1","OBJECT_TYPE":"PAYLOAD","CLASSIFICATION_TYPE":"U","INTLDES":"18047A","EPOCH":"2023-10-17 19:07:48","EPOCH_MICROSECONDS":"925056","MEAN_MOTION":"15.27090438","ECCENTRICITY":"0.0010802","INCLINATION":"88.9851","RA_OF_ASC_NODE":"332.5166","ARG_OF_PERICENTER":"290.0525","MEAN_ANOMALY":"69.9561","EPHEMERIS_TYPE":"0","ELEMENT_SET_NO":"999","REV_AT_EPOCH":"30070","BSTAR":"0.00016416","MEAN_MOTION_DOT":"0.00004394","MEAN_MOTION_DDOT":"0","FILE":"4039244","TLE_LINE0":"0 GRACE-FO 1","TLE_LINE1":"1 43476U 18047A   23290.79709404  .00004394  00000-0  16416-3 0  9991","TLE_LINE2":"2 43476  88.9851 332.5166 0010802 290.0525  69.9561 15.27090438300700","OBJECT_ID":"2018-047A","OBJECT_NUMBER":"43476","SEMIMAJOR_AXIS":"6862.652","PERIOD":"94.297","APOGEE":"491.930","PERIGEE":"477.104","DECAYED":"0"},{"COMMENT":"GENERATED VIA SPACETRACK.ORG API","ORIGINATOR":"18 SPCS","NORAD_CAT_ID":"43476","OBJECT_NAME":"GRACE-FO 1","OBJECT_TYPE":"PAYLOAD","CLASSIFICATION_TYPE":"U","INTLDES":"18047A","EPOCH":"2023-10-18 04:33:59","EPOCH_MICROSECONDS":"571648","MEAN_MOTION":"15.27093044","ECCENTRICITY":"0.0010772","INCLINATION":"88.985","RA_OF_ASC_NODE":"332.4629","ARG_OF_PERICENTER":"288.073","MEAN_ANOMALY":"71.9345","EPHEMERIS_TYPE":"0","ELEMENT_SET_NO":"999","REV_AT_EPOCH":"30076","BSTAR":"0.0001571","MEAN_MOTION_DOT":"0.00004206","MEAN_MOTION_DDOT":"0","FILE":"4040140","TLE_LINE0":"0 GRACE-FO 1","TLE_LINE1":"1 43476U 18047A   23291.19027282  .00004206  00000-0  15710-3 0  9991","TLE_LINE2":"2 43476  88.9850 332.4629 0010772 288.0730  71.9345 15.27093044300768","OBJECT_ID":"2018-047A","OBJECT_NUMBER":"43476","SEMIMAJOR_AXIS":"6862.645","PERIOD":"94.297","APOGEE":"491.902","PERIGEE":"477.117","DECAYED":"0"},{"COMMENT":"GENERATED VIA SPACETRACK.ORG API","ORIGINATOR":"18 SPCS","NORAD_CAT_ID":"43476","OBJECT_NAME":"GRACE-FO 1","OBJECT_TYPE":"PAYLOAD","CLASSIFICATION_TYPE":"U","INTLDES":"18047A","EPOCH":"2023-10-18 20:17:37","EPOCH_MICROSECONDS":"147776","MEAN_MOTION":"15.27099723","ECCENTRICITY":"0.0010734","INCLINATION":"88.9849","RA_OF_ASC_NODE":"332.3734","ARG_OF_PERICENTER":"284.8703","MEAN_ANOMALY":"75.1357","EPHEMERIS_TYPE":"0","ELEMENT_SET_NO":"999","REV_AT_EPOCH":"30086","BSTAR":"0.00017797","MEAN_MOTION_DOT":"0.00004762","MEAN_MOTION_DDOT":"0","FILE":"4040228","TLE_LINE0":"0 GRACE-FO 1","TLE_LINE1":"1 43476U 18047A   23291.84556884  .00004762  00000-0  17797-3 0  9992","TLE_LINE2":"2 43476  88.9849 332.3734 0010734 284.8703  75.1357 15.27099723300864","OBJECT_ID":"2018-047A","OBJECT_NUMBER":"43476","SEMIMAJOR_AXIS":"6862.625","PERIOD":"94.296","APOGEE":"491.856","PERIGEE":"477.123","DECAYED":"0"},{"COMMENT":"GENERATED VIA SPACETRACK.ORG API","ORIGINATOR":"18 SPCS","NORAD_CAT_ID":"43476","OBJECT_NAME":"GRACE-FO 1","OBJECT_TYPE":"PAYLOAD","CLASSIFICATION_TYPE":"U","INTLDES":"18047A","EPOCH":"2023-10-18 21:51:58","EPOCH_MICROSECONDS":"891392","MEAN_MOTION":"15.2710043","ECCENTRICITY":"0.001073","INCLINATION":"88.9849","RA_OF_ASC_NODE":"332.3645","ARG_OF_PERICENTER":"284.5398","MEAN_ANOMALY":"75.4661","EPHEMERIS_TYPE":"0","ELEMENT_SET_NO":"999","REV_AT_EPOCH":"30087","BSTAR":"0.00018018","MEAN_MOTION_DOT":"0.00004821","MEAN_MOTION_DDOT":"0","FILE":"4040456","TLE_LINE0":"0 GRACE-FO 1","TLE_LINE1":"1 43476U 18047A   23291.91109828  .00004821  00000-0  18018-3 0  9995","TLE_LINE2":"2 43476  88.9849 332.3645 0010730 284.5398  75.4661 15.27100430300878","OBJECT_ID":"2018-047A","OBJECT_NUMBER":"43476","SEMIMAJOR_AXIS":"6862.622","PERIOD":"94.296","APOGEE":"491.851","PERIGEE":"477.124","DECAYED":"0"},{"COMMENT":"GENERATED VIA SPACETRACK.ORG API","ORIGINATOR":"18 SPCS","NORAD_CAT_ID":"43476","OBJECT_NAME":"GRACE-FO 1","OBJECT_TYPE":"PAYLOAD","CLASSIFICATION_TYPE":"U","INTLDES":"18047A","EPOCH":"2023-10-19 13:35:36","EPOCH_MICROSECONDS":"231648","MEAN_MOTION":"15.27106119","ECCENTRICITY":"0.0010702","INCLINATION":"88.985","RA_OF_ASC_NODE":"332.2749","ARG_OF_PERICENTER":"281.3035","MEAN_ANOMALY":"78.7012","EPHEMERIS_TYPE":"0","ELEMENT_SET_NO":"999","REV_AT_EPOCH":"30097","BSTAR":"0.00017853","MEAN_MOTION_DOT":"0.00004778","MEAN_MOTION_DDOT":"0","FILE":"4042363","TLE_LINE0":"0 GRACE-FO 1","TLE_LINE1":"1 43476U 18047A   23292.56639157  .00004778  00000-0  17853-3 0  9997","TLE_LINE2":"2 43476  88.9850 332.2749 0010702 281.3035  78.7012 15.27106119300973","OBJECT_ID":"2018-047A","OBJECT_NUMBER":"43476","SEMIMAJOR_AXIS":"6862.605","PERIOD":"94.296","APOGEE":"491.815","PERIGEE":"477.126","DECAYED":"0"},{"COMMENT":"GENERATED VIA SPACETRACK.ORG API","ORIGINATOR":"18 SPCS","NORAD_CAT_ID":"43476","OBJECT_NAME":"GRACE-FO 1","OBJECT_TYPE":"PAYLOAD","CLASSIFICATION_TYPE":"U","INTLDES":"18047A","EPOCH":"2023-10-19 21:27:24","EPOCH_MICROSECONDS":"812352","MEAN_MOTION":"15.27109599","ECCENTRICITY":"0.0010682","INCLINATION":"88.9849","RA_OF_ASC_NODE":"332.2302","ARG_OF_PERICENTER":"279.6986","MEAN_ANOMALY":"80.3056","EPHEMERIS_TYPE":"0","ELEMENT_SET_NO":"999","REV_AT_EPOCH":"30102","BSTAR":"0.00019031","MEAN_MOTION_DOT":"0.00005092","MEAN_MOTION_DDOT":"0","FILE":"4042947","TLE_LINE0":"0 GRACE-FO 1","TLE_LINE1":"1 43476U 18047A   23292.89403718  .00005092  00000-0  19031-3 0  9995","TLE_LINE2":"2 43476  88.9849 332.2302 0010682 279.6986  80.3056 15.27109599301027","OBJECT_ID":"2018-047A","OBJECT_NUMBER":"43476","SEMIMAJOR_AXIS":"6862.595","PERIOD":"94.296","APOGEE":"491.791","PERIGEE":"477.129","DECAYED":"0"},{"COMMENT":"GENERATED VIA SPACETRACK.ORG API","ORIGINATOR":"18 SPCS","NORAD_CAT_ID":"43476","OBJECT_NAME":"GRACE-FO 1","OBJECT_TYPE":"PAYLOAD","CLASSIFICATION_TYPE":"U","INTLDES":"18047A","EPOCH":"2023-10-20 03:44:51","EPOCH_MICROSECONDS":"648576","MEAN_MOTION":"15.27110521","ECCENTRICITY":"0.001067","INCLINATION":"88.985","RA_OF_ASC_NODE":"332.1944","ARG_OF_PERICENTER":"278.355","MEAN_ANOMALY":"81.649","EPHEMERIS_TYPE":"0","ELEMENT_SET_NO":"999","REV_AT_EPOCH":"30106","BSTAR":"0.00016382","MEAN_MOTION_DOT":"0.00004387","MEAN_MOTION_DDOT":"0","FILE":"4043007","TLE_LINE0":"0 GRACE-FO 1","TLE_LINE1":"1 43476U 18047A   23293.15615334  .00004387  00000-0  16382-3 0  9996","TLE_LINE2":"2 43476  88.9850 332.1944 0010670 278.3550  81.6490 15.27110521301067","OBJECT_ID":"2018-047A","OBJECT_NUMBER":"43476","SEMIMAJOR_AXIS":"6862.592","PERIOD":"94.296","APOGEE":"491.780","PERIGEE":"477.135","DECAYED":"0"}]